[{"OBJECT_NAME":"STARLINK-30765","OBJECT_ID":"2023-162B","EPOCH":"2026-03-09T22:00:01.999584","MEAN_MOTION":15.26758904,"ECCENTRICITY":0.00011718,"INCLINATION":43,"RA_OF_ASC_NODE":130.6826,"ARG_OF_PERICENTER":258.6577,"MEAN_ANOMALY":252.9442,"EPHEMERIS_TYPE":0,"CLASSIFICATION_TYPE":"U","NORAD_CAT_ID":58119,"ELEMENT_SET_NO":999,"REV_AT_EPOCH":577,"BSTAR":-0.00036166039,"MEAN_MOTION_DOT":-9.953e-5,"MEAN_MOTION_DDOT":0},{"OBJECT_NAME":"OBJECT A","OBJECT_ID":"2025-013A","EPOCH":"2026-03-09T23:29:31.895232","MEAN_MOTION":15.29260221,"ECCENTRICITY":0.0010321,"INCLINATION":97.6364,"RA_OF_ASC_NODE":244.5149,"ARG_OF_PERICENTER":282.3775,"MEAN_ANOMALY":77.6309,"EPHEMERIS_TYPE":0,"CLASSIFICATION_TYPE":"U","NORAD_CAT_ID":62729,"ELEMENT_SET_NO":999,"REV_AT_EPOCH":6276,"BSTAR":0.0013206527,"MEAN_MOTION_DOT":0.00037616,"MEAN_MOTION_DDOT":0}]
